NORAD_CAT_ID,OBJECT_NAME,OBJECT_TYPE,EPOCH,MEAN_MOTION,ECCENTRICITY,INCLINATION,RA_OF_ASC_NODE,ARG_OF_PERICENTER,MEAN_ANOMALY,BSTAR,MEAN_MOTION_DOT,MEAN_MOTION_DDOT,TLE_LINE0,TLE_LINE1,TLE_LINE2,SEMIMAJOR_AXIS,PERIOD,APOGEE,PERIGEE,DECAYED
52098.0,STARLINK-3665,PAYLOAD,2022-11-05 07:53:25,15.08830811,0.0001543,53.216,167.5422,62.654,297.4609,6.6682e-05,7.73e-06,0.0,0 STARLINK-3665,1 52098U 22029L   22309.32876681  .00000773  00000-0  66682-4 0  9995,2 52098  53.2160 167.5422 0001543  62.6540 297.4609 15.08830811 36423,6917.908,95.438,540.841,538.706,0.0
52098.0,STARLINK-3665,PAYLOAD,2022-11-05 20:36:29,15.0884496,0.0001654,53.2159,165.1642,68.8267,291.2901,1.6745e-05,-2.2e-07,0.0,0 STARLINK-3665,1 52098U 22029L   22309.85867855 -.00000022  00000-0  16745-4 0  9999,2 52098  53.2159 165.1642 0001654  68.8267 291.2901 15.08844960 36502,6917.865,95.437,540.874,538.586,0.0
52098.0,STARLINK-3665,PAYLOAD,2022-11-06 07:44:12,15.08833702,0.0001839,53.2163,163.0848,58.3091,301.808,-2.6344e-05,-7.07e-06,0.0,0 STARLINK-3665,1 52098U 22029L   22310.32236698 -.00000707  00000-0 -26344-4 0  9995,2 52098  53.2163 163.0848 0001839  58.3091 301.8080 15.08833702 36571,6917.9,95.438,541.0369999999998,538.492,0.0
52098.0,STARLINK-3665,PAYLOAD,2022-11-06 18:51:54,15.08838695,0.0001675999999999,53.2159,161.0019,59.6404,300.4754,3.4823e-05,2.66e-06,0.0,0 STARLINK-3665,1 52098U 22029L   22310.78604194  .00000266  00000-0  34823-4 0  9994,2 52098  53.2159 161.0019 0001676  59.6404 300.4754 15.08838695 36642,6917.884,95.438,540.909,538.59,0.0
52098.0,STARLINK-3665,PAYLOAD,2022-11-07 01:13:26,15.08841623,0.000161,53.216,159.8118,60.2036,299.9116,5.234100000000001e-05,5.45e-06,0.0,0 STARLINK-3665,1 52098U 22029L   22311.05099939  .00000545  00000-0  52341-4 0  9995,2 52098  53.2160 159.8118 0001610  60.2036 299.9116 15.08841623 36689,6917.875,95.437,540.854,538.627,0.0
52098.0,STARLINK-3665,PAYLOAD,2022-11-07 23:28:50,15.08839117,0.000178,53.2157,155.6489,63.8358,296.2817,3.1562e-05,2.14e-06,0.0,0 STARLINK-3665,1 52098U 22029L   22311.97836416  .00000214  00000-0  31562-4 0  9990,2 52098  53.2157 155.6489 0001780  63.8358 296.2817 15.08839117 36823,6917.8830000000025,95.438,540.979,538.5169999999998,0.0
52098.0,STARLINK-3665,PAYLOAD,2022-11-08 23:19:36,15.08853038,0.0001695,53.2156,151.1881,59.1127,301.0032,0.00014692,2.052e-05,0.0,0 STARLINK-3665,1 52098U 22029L   22312.97194829  .00002052  00000-0  14692-3 0  9992,2 52098  53.2156 151.1881 0001695  59.1127 301.0032 15.08853038 36974,6917.840999999999,95.437,540.878,538.533,0.0
52098.0,STARLINK-3665,PAYLOAD,2022-11-09 19:59:38,15.08835918,0.0001641,53.2164,147.3219,60.361,299.7546,-7.8215e-06,-4.13e-06,0.0,0 STARLINK-3665,1 52098U 22029L   22313.83308188 -.00000413  00000-0 -78215-5 0  9997,2 52098  53.2164 147.3219 0001641  60.3610 299.7546 15.08835918 37103,6917.893,95.438,540.893,538.623,0.0
52098.0,STARLINK-3665,PAYLOAD,2022-11-10 11:53:29,15.0883741,0.0001499,53.2159,144.3481,54.2796,305.8335,-6.5177e-05,-1.325e-05,0.0,0 STARLINK-3665,1 52098U 22029L   22314.49548506 -.00001325  00000-0 -65177-4 0  9995,2 52098  53.2159 144.3481 0001499  54.2796 305.8335 15.08837410 37208,6917.888000000001,95.438,540.79,538.716,0.0
52098.0,STARLINK-3665,PAYLOAD,2022-11-10 19:50:25,15.08828063,0.0001763,53.2163,142.8617,56.0444,304.0715,0.00013901,1.924e-05,0.0,0 STARLINK-3665,1 52098U 22029L   22314.82668403  .00001924  00000-0  13901-3 0  9991,2 52098  53.2163 142.8617 0001763  56.0444 304.0715 15.08828063 37253,6917.917,95.438,541.002,538.562,0.0
52098.0,STARLINK-3665,PAYLOAD,2022-11-10 21:25:48,15.08883034,0.0001696,53.2163,142.5642,46.6255,313.4878,-0.00057844,-9.493e-05,0.0,0 STARLINK-3665,1 52098U 22029L   22314.89291716 -.00009493  00000-0 -57844-3 0  9992,2 52098  53.2163 142.5642 0001696  46.6255 313.4878 15.08883034 37262,6917.749,95.435,540.7869999999998,538.441,0.0
52098.0,STARLINK-3665,PAYLOAD,2022-11-11 11:44:16,15.08834598,0.000149,53.2165,139.8883,54.0858,306.0272,0.00012535,1.707e-05,0.0,0 STARLINK-3665,1 52098U 22029L   22315.48908321  .00001707  00000-0  12535-3 0  9991,2 52098  53.2165 139.8883 0001490  54.0858 306.0272 15.08834598 37351,6917.897,95.438,540.793,538.731,0.0
52098.0,STARLINK-3665,PAYLOAD,2022-11-11 18:05:49,15.08837455,0.000154,53.2165,138.6986,53.5948,306.5186,0.00015902,2.244e-05,0.0,0 STARLINK-3665,1 52098U 22029L   22315.75404180  .00002244  00000-0  15902-3 0  9993,2 52098  53.2165 138.6986 0001540  53.5948 306.5186 15.08837455 37390,6917.888000000001,95.438,540.819,538.688,0.0
52098.0,STARLINK-3665,PAYLOAD,2022-11-11 21:16:35,15.08839073,0.0001549,53.2165,138.1039,53.8268,306.2867,0.00017462,2.492e-05,0.0,0 STARLINK-3665,1 52098U 22029L   22315.88652133  .00002492  00000-0  17462-3 0  9998,2 52098  53.2165 138.1039 0001549  53.8268 306.2867 15.08839073 37415,6917.8830000000025,95.438,540.82,538.677,0.0
52098.0,STARLINK-3665,PAYLOAD,2022-11-12 11:35:03,15.08843739,0.0001551,53.2165,135.4277,55.7474,304.3665,0.00015652,2.204e-05,0.0,0 STARLINK-3665,1 52098U 22029L   22316.48267937  .00002204  00000-0  15652-3 0  9999,2 52098  53.2165 135.4277 0001551  55.7474 304.3665 15.08843739 37501,6917.869000000002,95.437,540.807,538.661,0.0
52098.0,STARLINK-3665,PAYLOAD,2022-11-12 19:31:59,15.08837572,0.000146,53.2162,133.9398,57.7379,302.3755,5.8924e-05,6.5e-06,0.0,0 STARLINK-3665,1 52098U 22029L   22316.81388492  .00000650  00000-0  58924-4 0  9999,2 52098  53.2162 133.9398 0001460  57.7379 302.3755 15.08837572 37551,6917.888000000001,95.438,540.763,538.743,0.0
52098.0,STARLINK-3665,PAYLOAD,2022-11-13 11:25:50,15.08842209,0.0001452,53.216,130.9658,57.1029,303.0102,2.2356e-05,6.8e-07,0.0,0 STARLINK-3665,1 52098U 22029L   22317.47628283  .00000068  00000-0  22356-4 0  9990,2 52098  53.2160 130.9658 0001452  57.1029 303.0102 15.08842209 37650,6917.874,95.437,540.743,538.734,0.0
52098.0,STARLINK-3665,PAYLOAD,2022-11-13 17:47:23,15.08842436,0.0001774999999999,53.2165,129.7782,57.6926,302.4238,2.8514e-05,1.66e-06,0.0,0 STARLINK-3665,1 52098U 22029L   22317.74124254  .00000166  00000-0  28514-4 0  9990,2 52098  53.2165 129.7782 0001775  57.6926 302.4238 15.08842436 37697,6917.873000000001,95.437,540.966,538.51,0.0
52098.0,STARLINK-3665,PAYLOAD,2022-11-14 04:55:06,15.08818383,0.0001606,53.2164,127.6963,61.5967,298.5187,0.00012382,1.682e-05,0.0,0 STARLINK-3665,1 52098U 22029L   22318.20493714  .00001682  00000-0  12382-3 0  9991,2 52098  53.2164 127.6963 0001606  61.5967 298.5187 15.08818383 37766,6917.946,95.439,540.922,538.7,0.0
52098.0,STARLINK-3665,PAYLOAD,2022-11-14 11:16:38,15.08828734,0.0001749,53.2164,126.5064,58.1247,301.9916,1.7224e-05,-1.4e-07,0.0,0 STARLINK-3665,1 52098U 22029L   22318.46989271 -.00000014  00000-0  17224-4 0  9997,2 52098  53.2164 126.5064 0001749  58.1247 301.9916 15.08828734 37802,6917.915,95.438,540.99,538.57,0.0
52098.0,STARLINK-3665,PAYLOAD,2022-11-14 17:38:11,15.08832529,0.000178,53.2163,125.3172,57.925,302.1914,5.1842e-05,5.37e-06,0.0,0 STARLINK-3665,1 52098U 22029L   22318.73485087  .00000537  00000-0  51842-4 0  9996,2 52098  53.2163 125.3172 0001780  57.9250 302.1914 15.08832529 37846,6917.903,95.438,541.0,538.5369999999998,0.0
52098.0,STARLINK-3665,PAYLOAD,2022-11-15 11:07:25,15.08838211,0.0001819,53.2162,122.046,58.5735,301.5435,2.5934e-05,1.25e-06,0.0,0 STARLINK-3665,1 52098U 22029L   22319.46349007  .00000125  00000-0  25934-4 0  9994,2 52098  53.2162 122.0460 0001819  58.5735 301.5435 15.08838211 37954,6917.886,95.438,541.009,538.492,0.0
52098.0,STARLINK-3665,PAYLOAD,2022-11-15 17:28:57,15.08840394,0.0001845,53.2163,120.8566,58.9004,301.2169,6.604899999999999e-05,7.63e-06,0.0,0 STARLINK-3665,1 52098U 22029L   22319.72844805  .00000763  00000-0  66049-4 0  9999,2 52098  53.2163 120.8566 0001845  58.9004 301.2169 15.08840394 37990,6917.879,95.438,541.021,538.4680000000002,0.0
52098.0,STARLINK-3665,PAYLOAD,2022-11-16 14:08:58,15.08842333,0.0001888,53.2165,116.9903,62.3397,297.7787,0.00013803,1.909e-05,0.0,0 STARLINK-3665,1 52098U 22029L   22320.58956514  .00001909  00000-0  13803-3 0  9998,2 52098  53.2165 116.9903 0001888  62.3397 297.7787 15.08842333 38120,6917.873000000001,95.437,541.044,538.432,0.0
52098.0,STARLINK-3665,PAYLOAD,2022-11-16 18:55:08,15.08836319,0.0001849,53.2165,116.098,61.8977,298.2202,7.1874e-05,8.56e-06,0.0,0 STARLINK-3665,1 52098U 22029L   22320.78829148  .00000856  00000-0  71874-4 0  9995,2 52098  53.2165 116.0980 0001849  61.8977 298.2202 15.08836319 38159,6917.892,95.438,541.036,538.4780000000002,0.0
52098.0,STARLINK-3665,PAYLOAD,2022-11-17 10:48:59,15.08841912,0.0001763,53.2166,113.1233,57.3422,302.774,1.1048e-05,-1.12e-06,0.0,0 STARLINK-3665,1 52098U 22029L   22321.45069044 -.00000112  00000-0  11048-4 0  9994,2 52098  53.2166 113.1233 0001763  57.3422 302.7740 15.08841912 38253,6917.875,95.437,540.9590000000002,538.52,0.0
52098.0,STARLINK-3665,PAYLOAD,2022-11-17 18:45:54,15.08846627,0.0001807,53.2168,111.6365,58.3046,301.8122,4.5645e-05,4.39e-06,0.0,0 STARLINK-3665,1 52098U 22029L   22321.78188492  .00000439  00000-0  45645-4 0  9990,2 52098  53.2168 111.6365 0001807  58.3046 301.8122 15.08846627 38304,6917.86,95.437,540.975,538.475,0.0
52098.0,STARLINK-3665,PAYLOAD,2022-11-18 02:42:51,15.08835219,0.000184,53.217,110.1495,59.6856,300.4318,-7.7469e-05,-1.521e-05,0.0,0 STARLINK-3665,1 52098U 22029L   22322.11309582 -.00001521  00000-0 -77469-4 0  9997,2 52098  53.2170 110.1495 0001840  59.6856 300.4318 15.08835219 38357,6917.895,95.438,541.033,538.487,0.0
52098.0,STARLINK-3665,PAYLOAD,2022-11-18 10:39:47,15.08830243,0.0001769,53.217,108.6629,60.4143,299.7025,9.765e-06,-1.33e-06,0.0,0 STARLINK-3665,1 52098U 22029L   22322.44429613 -.00000133  00000-0  97650-5 0  9993,2 52098  53.2170 108.6629 0001769  60.4143 299.7025 15.08830243 38400,6917.91,95.438,540.999,538.5509999999998,0.0
